<?xml version="1.0" encoding="UTF-8"?>
<kml xmlns="http://www.opengis.net/kml/2.2">
<Document><name>Synthetic parcel block</name>
<Placemark><name>Parcel 01</name><ExtendedData><Data name="block"><value>B</value></Data><Data name="plot_no"><value>1</value></Data></ExtendedData><Polygon><outerBoundaryIs><LinearRing><coordinates>77.209,28.6139 77.21,28.6139 77.21,28.6147 77.209,28.6147 77.209,28.6139</coordinates></LinearRing></outerBoundaryIs></Polygon></Placemark>
<Placemark><name>Parcel 02</name><ExtendedData><Data name="block"><value>B</value></Data><Data name="plot_no"><value>2</value></Data></ExtendedData><Polygon><outerBoundaryIs><LinearRing><coordinates>77.2102,28.6139 77.2112,28.6139 77.2112,28.6147 77.2102,28.6147 77.2102,28.6139</coordinates></LinearRing></outerBoundaryIs></Polygon></Placemark>
<Placemark><name>Parcel 03</name><ExtendedData><Data name="block"><value>B</value></Data><Data name="plot_no"><value>3</value></Data></ExtendedData><Polygon><outerBoundaryIs><LinearRing><coordinates>77.2114,28.6139 77.2124,28.6139 77.2124,28.6147 77.2114,28.6147 77.2114,28.6139</coordinates></LinearRing></outerBoundaryIs></Polygon></Placemark>
<Placemark><name>Parcel 04</name><ExtendedData><Data name="block"><value>B</value></Data><Data name="plot_no"><value>4</value></Data></ExtendedData><Polygon><outerBoundaryIs><LinearRing><coordinates>77.2126,28.6139 77.2136,28.6139 77.2136,28.6147 77.2126,28.6147 77.2126,28.6139</coordinates></LinearRing></outerBoundaryIs></Polygon></Placemark>
<Placemark><name>Parcel 05</name><ExtendedData><Data name="block"><value>B</value></Data><Data name="plot_no"><value>5</value></Data></ExtendedData><Polygon><outerBoundaryIs><LinearRing><coordinates>77.209,28.6149 77.21,28.6149 77.21,28.6157 77.209,28.6157 77.209,28.6149</coordinates></LinearRing></outerBoundaryIs></Polygon></Placemark>
<Placemark><name>Parcel 06</name><ExtendedData><Data name="block"><value>B</value></Data><Data name="plot_no"><value>6</value></Data></ExtendedData><Polygon><outerBoundaryIs><LinearRing><coordinates>77.2102,28.6149 77.2112,28.6149 77.2112,28.6157 77.2102,28.6157 77.2102,28.6149</coordinates></LinearRing></outerBoundaryIs></Polygon></Placemark>
<Placemark><name>Parcel 07</name><ExtendedData><Data name="block"><value>B</value></Data><Data name="plot_no"><value>7</value></Data></ExtendedData><Polygon><outerBoundaryIs><LinearRing><coordinates>77.2114,28.6149 77.2124,28.6149 77.2124,28.6157 77.2114,28.6157 77.2114,28.6149</coordinates></LinearRing></outerBoundaryIs></Polygon></Placemark>
<Placemark><name>Parcel 08</name><ExtendedData><Data name="block"><value>B</value></Data><Data name="plot_no"><value>8</value></Data></ExtendedData><Polygon><outerBoundaryIs><LinearRing><coordinates>77.2126,28.6149 77.2136,28.6149 77.2136,28.6157 77.2126,28.6157 77.2126,28.6149</coordinates></LinearRing></outerBoundaryIs></Polygon></Placemark>
<Placemark><name>Parcel 09</name><ExtendedData><Data name="block"><value>B</value></Data><Data name="plot_no"><value>9</value></Data></ExtendedData><Polygon><outerBoundaryIs><LinearRing><coordinates>77.209,28.6159 77.21,28.6159 77.21,28.6167 77.209,28.6167 77.209,28.6159</coordinates></LinearRing></outerBoundaryIs></Polygon></Placemark>
<Placemark><name>Parcel 10</name><ExtendedData><Data name="block"><value>B</value></Data><Data name="plot_no"><value>10</value></Data></ExtendedData><Polygon><outerBoundaryIs><LinearRing><coordinates>77.2102,28.6159 77.2112,28.6159 77.2112,28.6167 77.2102,28.6167 77.2102,28.6159</coordinates></LinearRing></outerBoundaryIs></Polygon></Placemark>
<Placemark><name>Parcel 11</name><ExtendedData><Data name="block"><value>B</value></Data><Data name="plot_no"><value>11</value></Data></ExtendedData><Polygon><outerBoundaryIs><LinearRing><coordinates>77.2114,28.6159 77.2124,28.6159 77.2124,28.6167 77.2114,28.6167 77.2114,28.6159</coordinates></LinearRing></outerBoundaryIs></Polygon></Placemark>
<Placemark><name>Parcel 12</name><ExtendedData><Data name="block"><value>B</value></Data><Data name="plot_no"><value>12</value></Data></ExtendedData><Polygon><outerBoundaryIs><LinearRing><coordinates>77.2126,28.6159 77.2136,28.6159 77.2136,28.6167 77.2126,28.6167 77.2126,28.6159</coordinates></LinearRing></outerBoundaryIs></Polygon></Placemark>
</Document>
</kml>
